NORAD_CAT_ID,OBJECT_NAME,OBJECT_TYPE,EPOCH,MEAN_MOTION,ECCENTRICITY,INCLINATION,RA_OF_ASC_NODE,ARG_OF_PERICENTER,MEAN_ANOMALY,BSTAR,MEAN_MOTION_DOT,MEAN_MOTION_DDOT,TLE_LINE0,TLE_LINE1,TLE_LINE2,SEMIMAJOR_AXIS,PERIOD,APOGEE,PERIGEE,DECAYED
52684.0,STARLINK-4014,PAYLOAD,2022-12-08 12:43:28,15.08856677,0.0002938,53.2189,73.4855,27.8636,332.2513,7.807800000000001e-05,9.55e-06,0.0,0 STARLINK-4014,1 52684U 22053AE  22342.53019569  .00000955  00000-0  78078-4 0  9991,2 52684  53.2189  73.4855 0002938  27.8636 332.2513 15.08856677 31917,6917.829000000002,95.436,541.727,537.6619999999998,0.0
52684.0,STARLINK-4014,PAYLOAD,2022-12-09 17:20:28,15.08814157,0.0004228,53.2178,68.1333,27.6006,332.521,-9.142e-05,-1.743e-05,0.0,0 STARLINK-4014,1 52684U 22053AE  22343.72254777 -.00001743  00000-0 -91420-4 0  9999,2 52684  53.2178  68.1333 0004228  27.6006 332.5210 15.08814157 31712,6917.959,95.439,542.749,536.899,0.0
52684.0,STARLINK-4014,PAYLOAD,2022-12-10 10:49:43,15.08777994,0.0002417,53.2189,64.8613,345.4453,14.6469,0.00071094,0.00011026,0.0,0 STARLINK-4014,1 52684U 22053AE  22344.45119661  .00011026  00000-0  71094-3 0  9999,2 52684  53.2189  64.8613 0002417 345.4453  14.6469 15.08777994 31826,6918.07,95.441,541.607,538.263,0.0
52684.0,STARLINK-4014,PAYLOAD,2022-12-10 12:25:05,15.08836561,0.0002699,53.2196,64.5612,32.8951,327.2208,-0.00012451,-2.269e-05,0.0,0 STARLINK-4014,1 52684U 22053AE  22344.51741921 -.00002269  00000-0 -12451-3 0  9999,2 52684  53.2196  64.5612 0002699  32.8951 327.2208 15.08836561 32216,6917.891,95.438,541.623,537.889,0.0
52684.0,STARLINK-4014,PAYLOAD,2022-12-11 10:40:29,15.08818637,0.0003022,53.2192,60.3986,33.0658,327.0522,0.00024929,3.679e-05,0.0,0 STARLINK-4014,1 52684U 22053AE  22345.44478413  .00003679  00000-0  24929-3 0  9992,2 52684  53.2192  60.3986 0003022  33.0658 327.0522 15.08818637 32354,6917.946,95.439,541.901,537.72,0.0
52684.0,STARLINK-4014,PAYLOAD,2022-12-12 08:55:53,15.08833946,0.0002891,53.2195,56.2361,36.4274,323.6915,0.00017285,2.463e-05,0.0,0 STARLINK-4014,1 52684U 22053AE  22346.37214798  .00002463  00000-0  17285-3 0  9996,2 52684  53.2195  56.2361 0002891  36.4274 323.6915 15.08833946 32114,6917.899,95.438,541.764,537.764,0.0
52684.0,STARLINK-4014,PAYLOAD,2022-12-12 10:31:16,15.08836682,0.000295,53.2184,55.9388,36.376,323.7432,0.00018238,2.615e-05,0.0,0 STARLINK-4014,1 52684U 22053AE  22346.43838749  .00002615  00000-0  18238-3 0  9999,2 52684  53.2184  55.9388 0002950  36.3760 323.7432 15.08836682 32500,6917.891,95.438,541.7959999999998,537.715,0.0
52684.0,STARLINK-4014,PAYLOAD,2022-12-13 10:22:03,15.08837527,0.0002917,53.2196,51.4788,43.7492,316.3731,5.9714e-05,6.62e-06,0.0,0 STARLINK-4014,1 52684U 22053AE  22347.43199031  .00000662  00000-0  59714-4 0  9999,2 52684  53.2196  51.4788 0002917  43.7492 316.3731 15.08837527 32650,6917.888000000001,95.438,541.771,537.735,0.0
52684.0,STARLINK-4014,PAYLOAD,2022-12-14 03:51:17,15.08851328,0.0003021,53.22,48.2079,45.3004,314.8234,0.00019098,2.753e-05,0.0,0 STARLINK-4014,1 52684U 22053AE  22348.16062236  .00002753  00000-0  19098-3 0  9999,2 52684  53.2200  48.2079 0003021  45.3004 314.8234 15.08851328 32383,6917.846,95.437,541.8009999999998,537.621,0.0
52684.0,STARLINK-4014,PAYLOAD,2022-12-14 13:23:36,15.08852528,0.0002636,53.2187,46.4229,44.727,315.3934,0.00020846,3.032e-05,0.0,0 STARLINK-4014,1 52684U 22053AE  22348.55805921  .00003032  00000-0  20846-3 0  9992,2 52684  53.2187  46.4229 0002636  44.7270 315.3934 15.08852528 32828,6917.842,95.437,541.531,537.884,0.0
52684.0,STARLINK-4014,PAYLOAD,2022-12-14 16:34:22,15.08847569,0.0002764,53.2184,45.8264,39.9278,320.1917,7.098e-05,8.42e-06,0.0,0 STARLINK-4014,1 52684U 22053AE  22348.69054065  .00000842  00000-0  70980-4 0  9993,2 52684  53.2184  45.8264 0002764  39.9278 320.1917 15.08847569 32467,6917.857,95.437,541.634,537.81,0.0
52684.0,STARLINK-4014,PAYLOAD,2022-12-15 13:14:23,15.08850933,0.0002696,53.2172,41.9616,36.0253,324.092,0.00014265,1.983e-05,0.0,0 STARLINK-4014,1 52684U 22053AE  22349.55165677  .00001983  00000-0  14265-3 0  9991,2 52684  53.2172  41.9616 0002696  36.0253 324.0920 15.08850933 32979,6917.847,95.437,541.577,537.847,0.0
52684.0,STARLINK-4014,PAYLOAD,2022-12-15 14:49:46,15.08854833,0.0002701,53.2173,41.6643,36.1287,323.9887,0.00019923,2.885e-05,0.0,0 STARLINK-4014,1 52684U 22053AE  22349.61789459  .00002885  00000-0  19923-3 0  9996,2 52684  53.2173  41.6643 0002701  36.1287 323.9887 15.08854833 32986,6917.835,95.437,541.569,537.832,0.0
52684.0,STARLINK-4014,PAYLOAD,2022-12-16 03:32:51,15.08850597,0.0002672,53.2173,39.2854,34.7391,325.3775,9.8986e-05,1.288e-05,0.0,0 STARLINK-4014,1 52684U 22053AE  22350.14781313  .00001288  00000-0  98986-4 0  9990,2 52684  53.2173  39.2854 0002672  34.7391 325.3775 15.08850597 32682,6917.848000000001,95.437,541.561,537.865,0.0
52684.0,STARLINK-4014,PAYLOAD,2022-12-16 13:05:09,15.08848348,0.0002694,53.2183,37.5012,36.0081,324.1092,5.6595000000000015e-06,-1.98e-06,0.0,0 STARLINK-4014,1 52684U 22053AE  22350.54525336 -.00000198  00000-0  56595-5 0  9996,2 52684  53.2183  37.5012 0002694  36.0081 324.1092 15.08848348 33125,6917.855,95.437,541.5840000000002,537.856,0.0
52684.0,STARLINK-4014,PAYLOAD,2022-12-16 14:40:33,15.08844936,0.0002566999999999,53.2181,37.2037,34.0736,326.0421,-2.7302e-06,-3.32e-06,0.0,0 STARLINK-4014,1 52684U 22053AE  22350.61149478 -.00000332  00000-0 -27302-5 0  9998,2 52684  53.2181  37.2037 0002567  34.0736 326.0421 15.08844936 32755,6917.865,95.437,541.506,537.9540000000002,0.0
52684.0,STARLINK-4014,PAYLOAD,2022-12-17 03:23:38,15.08833131,0.0002654,53.2179,34.8251,34.7612,325.3553,-5.7788e-05,-1.208e-05,0.0,0 STARLINK-4014,1 52684U 22053AE  22351.14142346 -.00001208  00000-0 -57788-4 0  9997,2 52684  53.2179  34.8251 0002654  34.7612 325.3553 15.08833131 32832,6917.901,95.438,541.602,537.93,0.0
52684.0,STARLINK-4014,PAYLOAD,2022-12-17 12:55:57,15.0883324,0.0002628999999999,53.2179,33.0408,35.0266,325.0899,-8.4029e-06,-4.22e-06,0.0,0 STARLINK-4014,1 52684U 22053AE  22351.53886278 -.00000422  00000-0 -84029-5 0  9995,2 52684  53.2179  33.0408 0002629  35.0266 325.0899 15.08833240 33278,6917.901,95.438,541.585,537.947,0.0
52684.0,STARLINK-4014,PAYLOAD,2022-12-17 14:31:20,15.08837915,0.000268,53.2178,32.7435,33.829,326.2873,2.2242e-05,6.5e-07,0.0,0 STARLINK-4014,1 52684U 22053AE  22351.60509904  .00000065  00000-0  22242-4 0  9990,2 52684  53.2178  32.7435 0002680  33.8290 326.2873 15.08837915 32900,6917.887,95.438,541.606,537.898,0.0
52684.0,STARLINK-4014,PAYLOAD,2022-12-18 11:11:22,15.08823032,0.0002656,53.2183,28.878,28.9694,331.1446,-7.0803e-05,-1.415e-05,0.0,0 STARLINK-4014,1 52684U 22053AE  22352.46623399 -.00001415  00000-0 -70803-4 0  9998,2 52684  53.2183  28.8780 0002656  28.9694 331.1446 15.08823032 33032,6917.932,95.439,541.635,537.96,0.0
52684.0,STARLINK-4014,PAYLOAD,2022-12-18 12:46:45,15.08823135,0.0002659,53.2185,28.5806,27.3562,332.75699999999995,-6.6386e-05,-1.344e-05,0.0,0 STARLINK-4014,1 52684U 22053AE  22352.53247432 -.00001344  00000-0 -66386-4 0  9998,2 52684  53.2185  28.5806 0002659  27.3562 332.7570 15.08823135 33422,6917.932,95.439,541.636,537.957,0.0
52684.0,STARLINK-4014,PAYLOAD,2022-12-18 19:08:17,15.08830561,0.0002616,53.2182,27.3912,28.1679,331.9454,-2.8595e-05,-7.43e-06,0.0,0 STARLINK-4014,1 52684U 22053AE  22352.79743006 -.00000743  00000-0 -28595-4 0  9996,2 52684  53.2182  27.3912 0002616  28.1679 331.9454 15.08830561 33462,6917.909000000002,95.438,541.5840000000002,537.965,0.0
52684.0,STARLINK-4014,PAYLOAD,2022-12-19 01:29:50,15.08829417,0.0002553,53.2181,26.2012,27.7465,332.3663,5.7546e-05,6.27e-06,0.0,0 STARLINK-4014,1 52684U 22053AE  22353.06238997  .00000627  00000-0  57546-4 0  9992,2 52684  53.2181  26.2012 0002553  27.7465 332.3663 15.08829417 33126,6917.913000000001,95.438,541.544,538.012,0.0
52684.0,STARLINK-4014,PAYLOAD,2022-12-19 09:26:45,15.08844412,0.0002654,53.2182,24.7151,27.6386,332.4747,0.00015644,2.203e-05,0.0,0 STARLINK-4014,1 52684U 22053AE  22353.39358026  .00002203  00000-0  15644-3 0  9998,2 52684  53.2182  24.7151 0002654  27.6386 332.4747 15.08844412 33178,6917.8669999999975,95.437,541.568,537.896,0.0
52684.0,STARLINK-4014,PAYLOAD,2022-12-19 18:59:04,15.08842155,0.000269,53.2179,22.9309,28.3903,331.7235,0.00010531,1.388e-05,0.0,0 STARLINK-4014,1 52684U 22053AE  22353.79102318  .00001388  00000-0  10531-3 0  9996,2 52684  53.2179  22.9309 0002690  28.3903 331.7235 15.08842155 33617,6917.874,95.437,541.6,537.878,0.0
52684.0,STARLINK-4014,PAYLOAD,2022-12-20 10:52:55,15.08844926,0.000256,53.2176,19.9569,24.2402,335.871,0.0002686,3.99e-05,0.0,0 STARLINK-4014,1 52684U 22053AE  22354.45341592  .00003990  00000-0  26860-3 0  9992,2 52684  53.2176  19.9569 0002560  24.2402 335.8710 15.08844926 33715,6917.865,95.437,541.501,537.9590000000002,0.0
52684.0,STARLINK-4014,PAYLOAD,2022-12-21 02:46:47,15.08828624,0.000268,53.2189,16.9831,27.1095,333.0037,-2.3928e-05,-6.69e-06,0.0,0 STARLINK-4014,1 52684U 22053AE  22355.11583320 -.00000669  00000-0 -23928-4 0  9998,2 52684  53.2189  16.9831 0002680  27.1095 333.0037 15.08828624 33439,6917.915,95.438,541.634,537.9259999999998,0.0
52684.0,STARLINK-4014,PAYLOAD,2022-12-21 10:43:44,15.08827398,0.0002665,53.2181,15.496,27.9308,332.1827,-0.00015358,-2.731e-05,0.0,0 STARLINK-4014,1 52684U 22053AE  22355.44703971 -.00002731  00000-0 -15358-3 0  9999,2 52684  53.2181  15.4960 0002665  27.9308 332.1827 15.08827398 33867,6917.919,95.438,541.628,537.94,0.0
52684.0,STARLINK-4014,PAYLOAD,2022-12-22 01:02:11,15.08838157,0.0002606,53.2176,12.8194,24.6241,335.4875,-5.9047e-05,-1.228e-05,0.0,0 STARLINK-4014,1 52684U 22053AE  22356.04319097 -.00001228  00000-0 -59047-4 0  9992,2 52684  53.2176  12.8194 0002606  24.6241 335.4875 15.08838157 33578,6917.886,95.438,541.554,537.948,0.0
